OBJECT_NAME,OBJECT_ID,EPOCH,MEAN_MOTION,ECCENTRICITY,INCLINATION,RA_OF_ASC_NODE,ARG_OF_PERICENTER,MEAN_ANOMALY,EPHEMERIS_TYPE,CLASSIFICATION_TYPE,NORAD_CAT_ID,ELEMENT_SET_NO,REV_AT_EPOCH,BSTAR,MEAN_MOTION_DOT,MEAN_MOTION_DDOT
SIRION PATHFINDER-2,2018-099B,2026-06-18T08:54:12.773088,15.14555966,.0007168,97.4248,218.4004,300.0763,59.9758,0,U,43759,999,41280,.19365E-3,.3507E-4,0
CORVUS BC4,2018-099K,2026-06-18T13:51:46.899360,15.12505661,.000814,97.4063,212.5173,8.8952,351.2422,0,U,43767,999,41261,.18973E-3,.3242E-4,0
M2 PATHFINDER,2020-037E,2026-06-18T12:14:14.275680,15.04679497,.001256,97.8145,0.7565,142.3155,217.8953,0,U,45727,999,32569,.92874E-4,.1244E-4,0
NETSAT-4,2020-068U,2026-06-17T23:13:01.939584,15.43886308,.00037463,97.8602,177.2709,334.9225,25.1839,0,U,46504,999,31589,.32135229E-3,.14505E-3,0
NETSAT-3,2020-068V,2026-06-17T23:22:55.904160,15.42703106,.00041054,97.8650,175.4935,358.6628,1.4606,0,U,46505,999,31580,.36637403E-3,.15908E-3,0
NETSAT-1,2020-068W,2026-06-18T10:32:51.350208,15.34667272,.0004889,97.8747,170.3121,28.7816,331.3694,0,U,46506,999,31549,.29212E-3,.9731E-4,0
NETSAT-2,2020-068X,2026-06-18T11:01:34.289760,15.46044422,.0003288,97.8610,177.7012,23.2689,336.8708,0,U,46507,999,31593,.37804E-3,.18392E-3,0
GREENCUBE (IO-117),2022-080E,2026-06-18T10:18:19.245024,6.42583246,.0008904,70.1442,297.8130,289.4279,70.5418,0,U,53109,999,9214,0,-.3E-7,0
SITRO-AIS 5 (KATYS),2023-091L,2026-06-18T15:21:50.507424,15.29484515,.001275,97.5056,233.5535,99.1174,261.1509,0,U,57176,999,16456,.32969E-3,.9371E-4,0
SITRO-AIS 6 (CHIRKIN),2023-091AC,2026-06-18T16:30:46.933344,15.25958068,.00131,97.5063,232.7130,101.9217,258.3491,0,U,57192,999,16451,.29536E-3,.7529E-4,0
SITRO-AIS 8 (ANOKHIN),2023-091AD,2026-06-18T15:42:41.995008,15.32169596,.0011759,97.5051,235.1625,95.5894,264.6689,0,U,57193,999,16467,.36838E-3,.11391E-3,0
SITRO-AIS 7 (FARTUSHNIY),2023-091AE,2026-06-18T16:35:45.490272,15.25646059,.0012962,97.5061,232.5408,102.8018,257.4669,0,U,57194,999,16450,.29382E-3,.7419E-4,0
SITRO-AIS 10 (BURDAEV),2023-091AK,2026-06-18T16:19:13.830816,15.38659183,.0007405,97.5077,240.2579,75.8393,284.3674,0,U,57199,999,16499,.41368E-3,.1574E-3,0
SITRO-AIS 9 (SHCHUKIN),2023-091AM,2026-06-18T15:24:15.285312,15.38164816,.0007666,97.5075,239.9478,76.1126,284.0971,0,U,57201,999,16497,.41052E-3,.1537E-3,0
SITRO-AIS 12 (SMIRENNIY),2023-091AQ,2026-06-18T15:10:21.051840,15.38457398,.0007191,97.5088,240.4060,71.1685,289.0340,0,U,57204,999,16499,.40581E-3,.15336E-3,0
SITRO-AIS 11 (SHEFFER),2023-091AU,2026-06-18T15:29:05.635104,15.38883255,.0007093,97.5086,240.6668,70.9742,289.2271,0,U,57208,999,16501,.40485E-3,.15514E-3,0
SITRO-AIS 25,2024-039R,2026-06-18T17:11:14.794080,14.93520026,.0143308,95.3909,236.1432,323.3750,35.7742,0,U,59066,999,12495,.1718E-3,.2178E-4,0
SITRO-AIS 26,2024-039S,2026-06-18T17:13:31.419264,14.93315761,.0143664,95.3910,236.0416,323.9597,35.2006,0,U,59067,999,12494,.16822E-3,.2122E-4,0
SITRO-AIS 27,2024-039T,2026-06-18T18:06:31.201920,14.93736253,.0142701,95.3911,236.3393,322.4289,36.7031,0,U,59068,999,12497,.15275E-3,.194E-4,0
SITRO-AIS 28,2024-039U,2026-06-18T17:33:59.514048,14.93770655,.0142456,95.3910,236.3713,322.3548,36.7772,0,U,59071,999,12497,.19213E-3,.2451E-4,0
GRBBETA,2024-128C,2026-06-18T09:57:07.269408,15.06645417,.0040487,61.9881,211.9597,134.9163,225.5227,0,U,60237,999,10645,.16766E-3,.2322E-4,0
OOV-CUBE (TUBSAT-30),2024-128F,2026-06-18T14:03:38.934720,15.02778203,.0044464,61.9932,220.6959,134.0792,226.3973,0,U,60240,999,10632,.11902E-3,.1416E-4,0
ROBUSTA-3A (MEDITERRANEE),2024-128J,2026-06-18T15:44:58.272000,15.11687722,.0041215,61.9844,203.0488,128.1883,232.2936,0,U,60243,999,10664,.24365E-3,.4023E-4,0
LASARSAT,2024-247Q,2026-06-16T23:25:46.453440,15.46364825,.000818,44.9742,263.4006,330.0323,30.0098,0,U,62391,999,8328,.52389176E-3,.26221E-3,0
CROCUBE,2024-247T,2026-06-17T16:25:00.765696,15.48292245,.00079679,44.9716,256.7472,338.3414,21.7139,0,U,62394,999,8342,.53654775E-3,.2875E-3,0
FORESAIL-1 PRIME,2025-276DS,2026-06-18T12:17:14.952768,15.18712200,.0003953,97.4198,242.7588,100.5303,259.6377,0,U,66778,999,3060,.17953E-3,.3659E-4,0
KNACKSAT-2,1998-067XZ,2026-06-17T14:33:42.297120,15.60014370,.0009088,51.6314,292.3670,217.1010,142.9356,0,U,67683,999,2034,.49993E-3,.40994E-3,0
