SIRION PATHFINDER-2     
1 43759U 18099B   26169.37098117  .00003507  00000+0  19365-3 0  9996
2 43759  97.4248 218.4004 0007168 300.0763  59.9758 15.14555966412809
CORVUS BC4              
1 43767U 18099K   26169.57762615  .00003242  00000+0  18973-3 0  9998
2 43767  97.4063 212.5173 0008140   8.8952 351.2422 15.12505661412619
M2 PATHFINDER           
1 45727U 20037E   26169.50988745  .00001244  00000+0  92874-4 0  9991
2 45727  97.8145   0.7565 0012560 142.3155 217.8953 15.04679497325691
NETSAT-4                
1 46504U 20068U   26168.96738356  .00014505  00000+0  32135-3 0  9996
2 46504  97.8602 177.2709 0003746 334.9225  25.1839 15.43886308315894
NETSAT-3                
1 46505U 20068V   26168.97425815  .00015908  00000+0  36637-3 0  9990
2 46505  97.8650 175.4935 0004105 358.6628   1.4606 15.42703106315802
NETSAT-1                
1 46506U 20068W   26169.43948322  .00009731  00000+0  29212-3 0  9994
2 46506  97.8747 170.3121 0004889  28.7816 331.3694 15.34667272315495
NETSAT-2                
1 46507U 20068X   26169.45942465  .00018392  00000+0  37804-3 0  9998
2 46507  97.8610 177.7012 0003288  23.2689 336.8708 15.46044422315939
GREENCUBE (IO-117)      
1 53109U 22080E   26169.42938941 -.00000003  00000+0  00000+0 0  9996
2 53109  70.1442 297.8130 0008904 289.4279  70.5418  6.42583246 92141
SITRO-AIS 5 (KATYS)     
1 57176U 23091L   26169.64016791  .00009371  00000+0  32969-3 0  9990
2 57176  97.5056 233.5535 0012750  99.1174 261.1509 15.29484515164562
SITRO-AIS 6 (CHIRKIN)   
1 57192U 23091AC  26169.68804321  .00007529  00000+0  29536-3 0  9995
2 57192  97.5063 232.7130 0013100 101.9217 258.3491 15.25958068164518
SITRO-AIS 8 (ANOKHIN)   
1 57193U 23091AD  26169.65465272  .00011391  00000+0  36838-3 0  9996
2 57193  97.5051 235.1625 0011759  95.5894 264.6689 15.32169596164673
SITRO-AIS 7 (FARTUSHNIY)
1 57194U 23091AE  26169.69149873  .00007419  00000+0  29382-3 0  9999
2 57194  97.5061 232.5408 0012962 102.8018 257.4669 15.25646059164508
SITRO-AIS 10 (BURDAEV)  
1 57199U 23091AK  26169.68002119  .00015740  00000+0  41368-3 0  9998
2 57199  97.5077 240.2579 0007405  75.8393 284.3674 15.38659183164990
SITRO-AIS 9 (SHCHUKIN)  
1 57201U 23091AM  26169.64184358  .00015370  00000+0  41052-3 0  9993
2 57201  97.5075 239.9478 0007666  76.1126 284.0971 15.38164816164971
SITRO-AIS 12 (SMIRENNIY)
1 57204U 23091AQ  26169.63218810  .00015336  00000+0  40581-3 0  9994
2 57204  97.5088 240.4060 0007191  71.1685 289.0340 15.38457398164997
SITRO-AIS 11 (SHEFFER)  
1 57208U 23091AU  26169.64520411  .00015514  00000+0  40485-3 0  9993
2 57208  97.5086 240.6668 0007093  70.9742 289.2271 15.38883255165011
SITRO-AIS 25            
1 59066U 24039R   26169.71614345  .00002178  00000+0  17180-3 0  9996
2 59066  95.3909 236.1432 0143308 323.3750  35.7742 14.93520026124957
SITRO-AIS 26            
1 59067U 24039S   26169.71772476  .00002122  00000+0  16822-3 0  9998
2 59067  95.3910 236.0416 0143664 323.9597  35.2006 14.93315761124946
SITRO-AIS 27            
1 59068U 24039T   26169.75452780  .00001940  00000+0  15275-3 0  9994
2 59068  95.3911 236.3393 0142701 322.4289  36.7031 14.93736253124978
SITRO-AIS 28            
1 59071U 24039U   26169.73193882  .00002451  00000+0  19213-3 0  9995
2 59071  95.3910 236.3713 0142456 322.3548  36.7772 14.93770655124977
GRBBETA                 
1 60237U 24128C   26169.41466747  .00002322  00000+0  16766-3 0  9995
2 60237  61.9881 211.9597 0040487 134.9163 225.5227 15.06645417106457
OOV-CUBE (TUBSAT-30)    
1 60240U 24128F   26169.58586730  .00001416  00000+0  11902-3 0  9992
2 60240  61.9932 220.6959 0044464 134.0792 226.3973 15.02778203106324
ROBUSTA-3A (MEDITERRAN*)
1 60243U 24128J   26169.65623000  .00004023  00000+0  24365-3 0  9999
2 60243  61.9844 203.0488 0041215 128.1883 232.2936 15.11687722106642
LASARSAT                
1 62391U 24247Q   26167.97623210  .00026221  00000+0  52389-3 0  9994
2 62391  44.9742 263.4006 0008180 330.0323  30.0098 15.46364825 83280
CROCUBE                 
1 62394U 24247T   26168.68403664  .00028750  00000+0  53655-3 0  9991
2 62394  44.9716 256.7472 0007967 338.3414  21.7139 15.48292245 83427
FORESAIL-1 PRIME        
1 66778U 25276DS  26169.51197862  .00003659  00000+0  17953-3 0  9999
2 66778  97.4198 242.7588 0003953 100.5303 259.6377 15.18712200 30607
KNACKSAT-2              
1 67683U 98067XZ  26168.60673955  .00040994  00000+0  49993-3 0  9996
2 67683  51.6314 292.3670 0009088 217.1010 142.9356 15.60014370 20344
